{"type": "FeatureCollection", "features": [ {"type": "Feature", "properties": {"norad_id": 66916, "name": "HULIANWANG DIGUI-106", "group": "last-30-days", "lat": 5.653380716558067, "lon": -83.15245697239165, "alt_km": 882.9292485106816, "timestamp": "2025-12-16T13:52:36.289029+00:00", "meta": {"OBJECT_NAME": "HULIANWANG DIGUI-106", "OBJECT_ID": "2025-285B", "EPOCH": "2025-12-15T21:40:48.152640", "MEAN_MOTION": 14.03701326, "ECCENTRICITY": 0.00067662, "INCLINATION": 50.0054, "RA_OF_ASC_NODE": 104.3632, "ARG_OF_PERICENTER": 286.4262, "MEAN_ANOMALY": 73.5899, "EPHEMERIS_TYPE": 0, "CLASSIFICATION_TYPE": "U", "NORAD_CAT_ID": 66916, "ELEMENT_SET_NO": 999, "REV_AT_EPOCH": 135, "BSTAR": 9.911186e-06, "MEAN_MOTION_DOT": -1.36e-06, "MEAN_MOTION_DDOT": 0}, "tle": {"line1": "1 66916U 25285B   25349.90333510 -.00000136  00000+0  99112-5 0  9994", "line2": "2 66916  50.0054 104.3632 0006766 286.4262  73.5899 14.03701326  1355"}}, "geometry": {"type": "Point", "coordinates": [-83.15245697239165, 5.653380716558067]}}, {"type": "Feature", "properties": {"norad_id": 66917, "name": "HULIANWANG DIGUI-107", "group": "last-30-days", "lat": -2.2722099634371897, "lon": -76.50122488107061, "alt_km": 882.2385684191222, "timestamp": "2025-12-16T13:52:36.289041+00:00", "meta": {"OBJECT_NAME": "HULIANWANG DIGUI-107", "OBJECT_ID": "2025-285C", "EPOCH": "2025-12-15T23:20:41.657568", "MEAN_MOTION": 14.0422537, "ECCENTRICITY": 0.00074205, "INCLINATION": 50.002, "RA_OF_ASC_NODE": 104.0584, "ARG_OF_PERICENTER": 295.2556, "MEAN_ANOMALY": 64.7579, "EPHEMERIS_TYPE": 0, "CLASSIFICATION_TYPE": "U", "NORAD_CAT_ID": 66917, "ELEMENT_SET_NO": 999, "REV_AT_EPOCH": 136, "BSTAR": 0.000164357, "MEAN_MOTION_DOT": 1.11e-06, "MEAN_MOTION_DDOT": 0}, "tle": {"line1": "1 66917U 25285C   25349.97270437  .00000111  00000+0  16436-3 0  9998", "line2": "2 66917  50.0020 104.0584 0007420 295.2556  64.7579 14.04225370  1363"}}, "geometry": {"type": "Point", "coordinates": [-76.50122488107061, -2.2722099634371897]}}, {"type": "Feature", "properties": {"norad_id": 66918, "name": "HULIANWANG DIGUI-108", "group": "last-30-days", "lat": -6.106218096408421, "lon": -73.26354054169597, "alt_km": 881.1639930305419, "timestamp": "2025-12-16T13:52:36.289051+00:00", "meta": {"OBJECT_NAME": "HULIANWANG DIGUI-108", "OBJECT_ID": "2025-285D", "EPOCH": "2025-12-15T21:36:54.908928", "MEAN_MOTION": 14.0440295, "ECCENTRICITY": 0.00063805, "INCLINATION": 50.0041, "RA_OF_ASC_NODE": 104.347, "ARG_OF_PERICENTER": 291.8226, "MEAN_ANOMALY": 68.2, "EPHEMERIS_TYPE": 0, "CLASSIFICATION_TYPE": "U", "NORAD_CAT_ID": 66918, "ELEMENT_SET_NO": 999, "REV_AT_EPOCH": 135, "BSTAR": 0.00010775564, "MEAN_MOTION_DOT": 2.1e-07, "MEAN_MOTION_DDOT": 0}, "tle": {"line1": "1 66918U 25285D   25349.90063552  .00000021  00000+0  10776-3 0  9991", "line2": "2 66918  50.0041 104.3470 0006380 291.8226  68.2000 14.04402950  1352"}}, "geometry": {"type": "Point", "coordinates": [-73.26354054169597, -6.106218096408421]}}, {"type": "Feature", "properties": {"norad_id": 66919, "name": "HULIANWANG DIGUI-109", "group": "last-30-days", "lat": -9.521146361498023, "lon": -70.32741168411862, "alt_km": 880.4093197395432, "timestamp": "2025-12-16T13:52:36.289061+00:00", "meta": {"OBJECT_NAME": "HULIANWANG DIGUI-109", "OBJECT_ID": "2025-285E", "EPOCH": "2025-12-15T21:36:02.631744", "MEAN_MOTION": 14.04996483, "ECCENTRICITY": 0.00079266, "INCLINATION": 50.0066, "RA_OF_ASC_NODE": 104.3472, "ARG_OF_PERICENTER": 302.4802, "MEAN_ANOMALY": 57.5336, "EPHEMERIS_TYPE": 0, "CLASSIFICATION_TYPE": "U", "NORAD_CAT_ID": 66919, "ELEMENT_SET_NO": 999, "REV_AT_EPOCH": 135, "BSTAR": 0.00011810987, "MEAN_MOTION_DOT": 3.9e-07, "MEAN_MOTION_DDOT": 0}, "tle": {"line1": "1 66919U 25285E   25349.90003046  .00000039  00000+0  11811-3 0  9994", "line2": "2 66919  50.0066 104.3472 0007926 302.4802  57.5336 14.04996483  1350"}}, "geometry": {"type": "Point", "coordinates": [-70.32741168411862, -9.521146361498023]}}, {"type": "Feature", "properties": {"norad_id": 66920, "name": "HULIANWANG DIGUI-110", "group": "last-30-days", "lat": -13.127230259163888, "lon": -67.13721625835576, "alt_km": 879.3779890448159, "timestamp": "2025-12-16T13:52:36.289071+00:00", "meta": {"OBJECT_NAME": "HULIANWANG DIGUI-110", "OBJECT_ID": "2025-285F", "EPOCH": "2025-12-15T23:17:10.870080", "MEAN_MOTION": 14.05095232, "ECCENTRICITY": 0.0005654, "INCLINATION": 50.0109, "RA_OF_ASC_NODE": 104.057, "ARG_OF_PERICENTER": 300.7801, "MEAN_ANOMALY": 59.2547, "EPHEMERIS_TYPE": 0, "CLASSIFICATION_TYPE": "U", "NORAD_CAT_ID": 66920, "ELEMENT_SET_NO": 999, "REV_AT_EPOCH": 136, "BSTAR": 0.00010035448, "MEAN_MOTION_DOT": 1.1e-07, "MEAN_MOTION_DDOT": 0}, "tle": {"line1": "1 66920U 25285F   25349.97026470  .00000011  00000+0  10035-3 0  9996", "line2": "2 66920  50.0109 104.0570 0005654 300.7801  59.2547 14.05095232  1369"}}, "geometry": {"type": "Point", "coordinates": [-67.13721625835576, -13.127230259163888]}}, {"type": "Feature", "properties": {"norad_id": 66921, "name": "HULIANWANG DIGUI-111", "group": "last-30-days", "lat": -15.644144561431858, "lon": -64.83486841155717, "alt_km": 878.1777853112662, "timestamp": "2025-12-16T13:52:36.289084+00:00", "meta": {"OBJECT_NAME": "HULIANWANG DIGUI-111", "OBJECT_ID": "2025-285G", "EPOCH": "2025-12-15T23:16:33.165120", "MEAN_MOTION": 14.05631583, "ECCENTRICITY": 0.0006789, "INCLINATION": 50.0114, "RA_OF_ASC_NODE": 104.0574, "ARG_OF_PERICENTER": 306.1977, "MEAN_ANOMALY": 53.83, "EPHEMERIS_TYPE": 0, "CLASSIFICATION_TYPE": "U", "NORAD_CAT_ID": 66921, "ELEMENT_SET_NO": 999, "REV_AT_EPOCH": 136, "BSTAR": 2.077565e-06, "MEAN_MOTION_DOT": -1.49e-06, "MEAN_MOTION_DDOT": 0}, "tle": {"line1": "1 66921U 25285G   25349.96982830 -.00000149  00000+0  20776-5 0  9995", "line2": "2 66921  50.0114 104.0574 0006789 306.1977  53.8300 14.05631583  1366"}}, "geometry": {"type": "Point", "coordinates": [-64.83486841155717, -15.644144561431858]}}, {"type": "Feature", "properties": {"norad_id": 66922, "name": "HULIANWANG DIGUI-112", "group": "last-30-days", "lat": -18.865147377389764, "lon": -61.77480155105583, "alt_km": 878.210275724342, "timestamp": "2025-12-16T13:52:36.289094+00:00", "meta": {"OBJECT_NAME": "HULIANWANG DIGUI-112", "OBJECT_ID": "2025-285H", "EPOCH": "2025-12-15T23:15:24.261984", "MEAN_MOTION": 14.05774807, "ECCENTRICITY": 0.00068261, "INCLINATION": 50.009, "RA_OF_ASC_NODE": 104.048, "ARG_OF_PERICENTER": 313.1524, "MEAN_ANOMALY": 46.881, "EPHEMERIS_TYPE": 0, "CLASSIFICATION_TYPE": "U", "NORAD_CAT_ID": 66922, "ELEMENT_SET_NO": 999, "REV_AT_EPOCH": 136, "BSTAR": 8.919271e-06, "MEAN_MOTION_DOT": -1.38e-06, "MEAN_MOTION_DDOT": 0}, "tle": {"line1": "1 66922U 25285H   25349.96903081 -.00000138  00000+0  89193-5 0  9993", "line2": "2 66922  50.0090 104.0480 0006826 313.1524  46.8810 14.05774807  1369"}}, "geometry": {"type": "Point", "coordinates": [-61.77480155105583, -18.865147377389764]}}, {"type": "Feature", "properties": {"norad_id": 66923, "name": "HULIANWANG DIGUI-113", "group": "last-30-days", "lat": -21.216962336814458, "lon": -59.429149366034466, "alt_km": 876.4786715073851, "timestamp": "2025-12-16T13:52:36.289104+00:00", "meta": {"OBJECT_NAME": "HULIANWANG DIGUI-113", "OBJECT_ID": "2025-285J", "EPOCH": "2025-12-15T21:32:19.398336", "MEAN_MOTION": 14.06057662, "ECCENTRICITY": 0.00054402, "INCLINATION": 50.0087, "RA_OF_ASC_NODE": 104.337, "ARG_OF_PERICENTER": 306.8018, "MEAN_ANOMALY": 53.2388, "EPHEMERIS_TYPE": 0, "CLASSIFICATION_TYPE": "U", "NORAD_CAT_ID": 66923, "ELEMENT_SET_NO": 999, "REV_AT_EPOCH": 135, "BSTAR": 0.00010517271, "MEAN_MOTION_DOT": 2.1e-07, "MEAN_MOTION_DDOT": 0}, "tle": {"line1": "1 66923U 25285J   25349.89744674  .00000021  00000+0  10517-3 0  9999", "line2": "2 66923  50.0087 104.3370 0005440 306.8018  53.2388 14.06057662  1350"}}, "geometry": {"type": "Point", "coordinates": [-59.429149366034466, -21.216962336814458]}}, {"type": "Feature", "properties": {"norad_id": 66924, "name": "CZ-8A R/B", "group": "last-30-days", "lat": 19.049434543479716, "lon": 116.66271655251293, "alt_km": 794.2043576468204, "timestamp": "2025-12-16T13:52:36.289117+00:00", "meta": {"OBJECT_NAME": "CZ-8A R/B", "OBJECT_ID": "2025-285K", "EPOCH": "2025-12-15T14:17:11.453280", "MEAN_MOTION": 14.30503022, "ECCENTRICITY": 0.01193038, "INCLINATION": 50.007, "RA_OF_ASC_NODE": 103.9992, "ARG_OF_PERICENTER": 116.8076, "MEAN_ANOMALY": 244.5099, "EPHEMERIS_TYPE": 0, "CLASSIFICATION_TYPE": "U", "NORAD_CAT_ID": 66924, "ELEMENT_SET_NO": 999, "REV_AT_EPOCH": 133, "BSTAR": 5.5539475e-05, "MEAN_MOTION_DOT": -1e-07, "MEAN_MOTION_DDOT": 0}, "tle": {"line1": "1 66924U 25285K   25349.59527145 -.00000010  00000+0  55539-4 0  9992", "line2": "2 66924  50.0070 103.9992 0119303 116.8076 244.5099 14.30503022  1330"}}, "geometry": {"type": "Point", "coordinates": [116.66271655251293, 19.049434543479716]}}, {"type": "Feature", "properties": {"norad_id": 66925, "name": "STARLINK-35945", "group": "last-30-days", "lat": 6.55189679879169, "lon": -153.74606055001408, "alt_km": 307.6190583342059, "timestamp": "2025-12-16T13:52:36.289127+00:00", "meta": {"OBJECT_NAME": "STARLINK-35945", "OBJECT_ID": "2025-286A", "EPOCH": "2025-12-15T22:00:01.999584", "MEAN_MOTION": 15.89739529, "ECCENTRICITY": 5.202e-05, "INCLINATION": 53.1571, "RA_OF_ASC_NODE": 34.5501, "ARG_OF_PERICENTER": 94.1201, "MEAN_ANOMALY": 251.5218, "EPHEMERIS_TYPE": 0, "CLASSIFICATION_TYPE": "U", "NORAD_CAT_ID": 66925, "ELEMENT_SET_NO": 999, "REV_AT_EPOCH": 250, "BSTAR": -0.0043708061, "MEAN_MOTION_DOT": -0.01162648, "MEAN_MOTION_DDOT": 0}, "tle": {"line1": "1 66925U 25286A   25349.91668981 -.01162648  00000+0 -43708-2 0  9995", "line2": "2 66925  53.1571  34.5501 0000520  94.1201 251.5218 15.89739529  2503"}}, "geometry": {"type": "Point", "coordinates": [-153.74606055001408, 6.55189679879169]}}]}